TOMORROW-S4             
1 62386U 24247K   26068.53305366  .00012677  00000+0  46927-3 0  9990
2 62386  44.9818 117.9996 0004434 210.4078 149.6548 15.27717249 67702
STARLINK-34769          
1 65094U 25167S   26068.26767209  .00019588  00000+0  67167-3 0  9996
2 65094  53.1615  28.7328 0001152  76.7668 283.3461 15.30202216 33416
